NORAD_CAT_ID,OBJECT_NAME,OBJECT_TYPE,EPOCH,MEAN_MOTION,ECCENTRICITY,INCLINATION,RA_OF_ASC_NODE,ARG_OF_PERICENTER,MEAN_ANOMALY,BSTAR,MEAN_MOTION_DOT,MEAN_MOTION_DDOT,TLE_LINE0,TLE_LINE1,TLE_LINE2,SEMIMAJOR_AXIS,PERIOD,APOGEE,PERIGEE,DECAYED
52574.0,STARLINK-3901,PAYLOAD,2024-01-07 11:09:38,15.08841785,0.0001711,53.218,75.5567,110.3683,249.7493,6.1808e-05,6.96e-06,0.0,0 STARLINK-3901,1 52574U 22051AQ  24007.46502619  .00000696  00000-0  61808-4 0  9997,2 52574  53.2180  75.5567 0001711 110.3683 249.7493 15.08841785 91983,6917.875,95.437,540.924,538.556,0.0
52574.0,STARLINK-3901,PAYLOAD,2024-01-08 04:38:53,15.08836366,0.0001634,53.2183,72.2869,102.4591,257.6584,3.1137e-05,2.08e-06,0.0,0 STARLINK-3901,1 52574U 22051AQ  24008.19367193  .00000208  00000-0  31137-4 0  9995,2 52574  53.2183  72.2869 0001634 102.4591 257.6584 15.08836366 92168,6917.891,95.438,540.887,538.626,0.0
52574.0,STARLINK-3901,PAYLOAD,2024-01-08 11:00:25,15.08837173,0.0001604,53.2184,71.0976,103.3816,256.7355,3.1604e-05,2.15e-06,0.0,0 STARLINK-3901,1 52574U 22051AQ  24008.45863170  .00000215  00000-0  31604-4 0  9997,2 52574  53.2184  71.0976 0001604 103.3816 256.7355 15.08837173 92132,6917.889,95.438,540.864,538.644,0.0
52574.0,STARLINK-3901,PAYLOAD,2024-01-09 10:51:12,15.08846037,0.0001687,53.2178,66.6377,98.9479,261.1704,2.5687e-05,1.21e-06,0.0,0 STARLINK-3901,1 52574U 22051AQ  24009.45222794  .00000121  00000-0  25687-4 0  9999,2 52574  53.2178  66.6377 0001687  98.9479 261.1704 15.08846037 92356,6917.862,95.437,540.894,538.56,0.0
52574.0,STARLINK-3901,PAYLOAD,2024-01-10 04:20:27,15.08835505,0.0001539,53.2185,63.3641,103.7062,256.4101,2.1829e-05,5.9e-07,0.0,0 STARLINK-3901,1 52574U 22051AQ  24010.18087544  .00000059  00000-0  21829-4 0  9997,2 52574  53.2185  63.3641 0001539 103.7062 256.4101 15.08835505 92469,6917.894,95.438,540.824,538.694,0.0
52574.0,STARLINK-3901,PAYLOAD,2024-01-10 10:41:59,15.08840585,0.0001513,53.2185,62.1741,100.2155,259.9008,5.8042e-05,6.36e-06,0.0,0 STARLINK-3901,1 52574U 22051AQ  24010.44583154  .00000636  00000-0  58042-4 0  9992,2 52574  53.2185  62.1741 0001513 100.2155 259.9008 15.08840585 92439,6917.879,95.438,540.79,538.697,0.0
52574.0,STARLINK-3901,PAYLOAD,2024-01-10 12:17:22,15.08842031,0.0001559,53.2185,61.8769,103.2414,256.8752,6.934e-05,8.16e-06,0.0,0 STARLINK-3901,1 52574U 22051AQ  24010.51207030  .00000816  00000-0  69340-4 0  9999,2 52574  53.2185  61.8769 0001559 103.2414 256.8752 15.08842031 92515,6917.874,95.437,540.818,538.661,0.0
52574.0,STARLINK-3901,PAYLOAD,2024-01-11 10:32:46,15.08840154,0.0001647,53.2184,57.7158,106.084,254.0333,9.1844e-05,1.174e-05,0.0,0 STARLINK-3901,1 52574U 22051AQ  24011.43943194  .00001174  00000-0  91844-4 0  9991,2 52574  53.2184  57.7158 0001647 106.0840 254.0333 15.08840154 92588,6917.88,95.438,540.884,538.606,0.0
52574.0,STARLINK-3901,PAYLOAD,2024-01-12 02:26:38,15.08841123,0.0001626,53.2186,54.7465,79.287,280.8305,3.9038e-05,3.33e-06,0.0,0 STARLINK-3901,1 52574U 22051AQ  24012.10183504  .00000333  00000-0  39038-4 0  9990,2 52574  53.2186  54.7465 0001626  79.2870 280.8305 15.08841123 92751,6917.877,95.437,540.867,538.617,0.0
52574.0,STARLINK-3901,PAYLOAD,2024-01-12 08:48:11,15.08839602,0.000172,53.2187,53.5544,73.9552,286.163,1.8016e-05,-1e-08,0.0,0 STARLINK-3901,1 52574U 22051AQ  24012.36679797 -.00000001  00000-0  18016-4 0  9998,2 52574  53.2187  53.5544 0001720  73.9552 286.1630 15.08839602 92726,6917.882,95.438,540.936,538.557,0.0
52574.0,STARLINK-3901,PAYLOAD,2024-01-13 11:49:44,15.08847082,0.0001749,53.2181,48.4975,82.9153,277.2038,2.5377e-05,1.16e-06,0.0,0 STARLINK-3901,1 52574U 22051AQ  24013.49287440  .00000116  00000-0  25377-4 0  9997,2 52574  53.2181  48.4975 0001749  82.9153 277.2038 15.08847082 92969,6917.859,95.437,540.934,538.514,0.0
52574.0,STARLINK-3901,PAYLOAD,2024-01-14 11:40:31,15.08839011,0.0001934,53.2199,44.0302,120.136,239.9824,0.00014004,1.941e-05,0.0,0 STARLINK-3901,1 52574U 22051AQ  24014.48647588  .00001941  00000-0  14004-3 0  9991,2 52574  53.2199  44.0302 0001934 120.1360 239.9824 15.08839011 93114,6917.883,95.438,541.086,538.41,0.0
52574.0,STARLINK-3901,PAYLOAD,2024-01-15 11:31:18,15.08847055,0.0001707,53.2167,39.5716,117.6114,242.5051,7.7147e-05,9.4e-06,0.0,0 STARLINK-3901,1 52574U 22051AQ  24015.48007173  .00000940  00000-0  77147-4 0  9998,2 52574  53.2167  39.5716 0001707 117.6114 242.5051 15.08847055 93190,6917.859,95.437,540.905,538.543,0.0
52574.0,STARLINK-3901,PAYLOAD,2024-01-16 01:49:47,15.08832145,0.0001606,53.2181,36.8969,105.3452,254.7717,-7.5208e-05,-1.484e-05,0.0,0 STARLINK-3901,1 52574U 22051AQ  24016.07624824 -.00001484  00000-0 -75208-4 0  9994,2 52574  53.2181  36.8969 0001606 105.3452 254.7717 15.08832145 93359,6917.904,95.438,540.88,538.658,0.0
52574.0,STARLINK-3901,PAYLOAD,2024-01-16 11:22:06,15.08839773,0.0001507,53.2189,35.113,108.2209,251.8947,-3.0585e-05,-7.75e-06,0.0,0 STARLINK-3901,1 52574U 22051AQ  24016.47368317 -.00000775  00000-0 -30585-4 0  9991,2 52574  53.2189  35.1130 0001507 108.2209 251.8947 15.08839773 93415,6917.881,95.438,540.789,538.704,0.0
52574.0,STARLINK-3901,PAYLOAD,2024-01-17 06:26:44,15.0883801,0.0001573,53.2172,31.546,104.5002,255.6165,5.7521e-05,6.28e-06,0.0,0 STARLINK-3901,1 52574U 22051AQ  24017.26856493  .00000628  00000-0  57521-4 0  9990,2 52574  53.2172  31.5460 0001573 104.5002 255.6165 15.08838010 93468,6917.886,95.438,540.84,538.663,0.0
52574.0,STARLINK-3901,PAYLOAD,2024-01-18 04:42:08,15.08831605,0.0001494,53.2177,27.3826,85.5411,274.5752,0.00010865,1.441e-05,0.0,0 STARLINK-3901,1 52574U 22051AQ  24018.19593070  .00001441  00000-0  10865-3 0  9995,2 52574  53.2177  27.3826 0001494  85.5411 274.5752 15.08831605 93674,6917.906,95.438,540.805,538.738,0.0
52574.0,STARLINK-3901,PAYLOAD,2024-01-18 11:03:39,15.08861622,0.000168,53.218,26.1924,110.1017,250.0156,-0.00018766,-3.275e-05,0.0,0 STARLINK-3901,1 52574U 22051AQ  24018.46087648 -.00003275  00000-0 -18766-3 0  9991,2 52574  53.2180  26.1924 0001680 110.1017 250.0156 15.08861622 93712,6917.814,95.436,540.841,538.517,0.0
52574.0,STARLINK-3901,PAYLOAD,2024-01-18 23:46:46,15.0883603,0.0001725,53.2187,23.8129,105.4486,254.6697,4.6647e-05,4.54e-06,0.0,0 STARLINK-3901,1 52574U 22051AQ  24018.99081078  .00000454  00000-0  46647-4 0  9994,2 52574  53.2187  23.8129 0001725 105.4486 254.6697 15.08836030 93790,6917.893,95.438,540.951,538.564,0.0
52574.0,STARLINK-3901,PAYLOAD,2024-01-19 07:43:40,15.0885812,0.000229,53.2179,22.3259,130.1625,229.9567,-2.0017e-05,-6.07e-06,0.0,0 STARLINK-3901,1 52574U 22051AQ  24019.32199749 -.00000607  00000-0 -20017-4 0  9992,2 52574  53.2179  22.3259 0002290 130.1625 229.9567 15.08858120 93848,6917.825,95.436,541.274,538.106,0.0
52574.0,STARLINK-3901,PAYLOAD,2024-01-19 23:37:32,15.088409,0.0001807,53.2191,19.3589,80.6441,279.4755,9.881e-05,1.285e-05,0.0,0 STARLINK-3901,1 52574U 22051AQ  24019.98440607  .00001285  00000-0  98810-4 0  9993,2 52574  53.2191  19.3589 0001807  80.6441 279.4755 15.08840900 93949,6917.878,95.437,540.993,538.493,0.0
52574.0,STARLINK-3901,PAYLOAD,2024-01-20 07:34:28,15.08839918,0.0001596,53.2177,17.866,107.2441,252.8726,8.1036e-05,1.002e-05,0.0,0 STARLINK-3901,1 52574U 22051AQ  24020.31560603  .00001002  00000-0  81036-4 0  9990,2 52574  53.2177  17.8660 0001596 107.2441 252.8726 15.08839918 93925,6917.881,95.438,540.85,538.642,0.0
52574.0,STARLINK-3901,PAYLOAD,2024-01-21 04:14:29,15.08842173,0.0001516,53.2181,14.002,81.0832,279.0331,3.0894e-05,2.04e-06,0.0,0 STARLINK-3901,1 52574U 22051AQ  24021.17672855  .00000204  00000-0  30894-4 0  9997,2 52574  53.2181  14.0020 0001516  81.0832 279.0331 15.08842173 94127,6917.874,95.437,540.787,538.69,0.0
52574.0,STARLINK-3901,PAYLOAD,2024-01-21 05:49:52,15.0884463,0.000158,53.2178,13.7046,77.0191,283.0978,4.5854e-05,4.42e-06,0.0,0 STARLINK-3901,1 52574U 22051AQ  24021.24296736  .00000442  00000-0  45854-4 0  9991,2 52574  53.2178  13.7046 0001580  77.0191 283.0978 15.08844630 94066,6917.866,95.437,540.824,538.638,0.0
52574.0,STARLINK-3901,PAYLOAD,2024-01-21 09:00:38,15.08849005,0.0001664,53.2188,13.1087,92.6836,267.4346,9.7706e-05,1.268e-05,0.0,0 STARLINK-3901,1 52574U 22051AQ  24021.37544209  .00001268  00000-0  97706-4 0  9996,2 52574  53.2188  13.1087 0001664  92.6836 267.4346 15.08849005 94154,6917.853,95.437,540.869,538.567,0.0
52574.0,STARLINK-3901,PAYLOAD,2024-01-22 04:05:17,15.08789653,0.0002011,53.219,9.5389,108.6002,251.5208,0.00088327,0.00013778,0.0,0 STARLINK-3901,1 52574U 22051AQ  24022.17033645  .00013778  00000-0  88327-3 0  9999,2 52574  53.2190   9.5389 0002011 108.6002 251.5208 15.08789653 94277,6918.034,95.441,541.291,538.508,0.0
52574.0,STARLINK-3901,PAYLOAD,2024-01-22 05:40:40,15.08790373,0.0001914,53.2194,9.242,101.3492,258.7716,0.00093236,0.00014562,0.0,0 STARLINK-3901,1 52574U 22051AQ  24022.23657892  .00014562  00000-0  93236-3 0  9999,2 52574  53.2194   9.2420 0001914 101.3492 258.7716 15.08790373 94216,6918.032,95.441,541.221,538.573,0.0
52574.0,STARLINK-3901,PAYLOAD,2024-01-22 08:51:26,15.08797178,0.0001941,53.219,8.6466,103.336,256.7849,0.00090183,0.00014077,0.0,0 STARLINK-3901,1 52574U 22051AQ  24022.36905869  .00014077  00000-0  90183-3 0  9992,2 52574  53.2190   8.6466 0001941 103.3360 256.7849 15.08797178 94238,6918.011,95.44,541.219,538.533,0.0
52574.0,STARLINK-3901,PAYLOAD,2024-01-23 03:56:03,15.08844266,0.0001775,53.2199,5.0735,124.237,235.879,-4.6021e-05,-1.021e-05,0.0,0 STARLINK-3901,1 52574U 22051AQ  24023.16392643 -.00001021  00000-0 -46021-4 0  9991,2 52574  53.2199   5.0735 0001775 124.2370 235.8790 15.08844266 94420,6917.867,95.437,540.96,538.504,0.0
52574.0,STARLINK-3901,PAYLOAD,2024-01-23 05:31:26,15.08842644,0.0001636,53.2197,4.7807,104.8595,255.2579,8.7546e-07,-2.74e-06,0.0,0 STARLINK-3901,1 52574U 22051AQ  24023.23016759 -.00000274  00000-0  87546-6 0  9997,2 52574  53.2197   4.7807 0001636 104.8595 255.2579 15.08842644 94365,6917.872,95.437,540.869,538.606,0.0
